GAOFEN-3 03             
1 52200U 22035A   22123.03179914  .00000037  00000+0  24337-4 0  9997
2 52200  98.4154 131.6126 0001549  88.5310 271.6060 14.42209441  3765
CZ-4C R/B               
1 52201U 22035B   22123.09721615  .00001057  00000+0  16723-3 0  9997
2 52201  98.3983 132.7491 0111121 328.8293  30.6420 14.70583759  3839
COSMOS 2554             
1 52202U 22036A   22123.03415703  .00000032  00000+0  77453-4 0  9991
2 52202  67.1489 289.3814 0006888 264.5315  95.4983 13.96674842  3628
SL-4 R/B                
1 52203U 22036B   22122.93831813  .00121434  73976-5  59712-3 0  9999
2 52203  67.1351 278.0340 0429154  68.6807 295.9562 15.11273306  3832
CHINASAT 6D             
1 52255U 22038A   22122.46451405 -.00000335  00000+0  00000+0 0  9992
2 52255   0.0527 280.0442 0002404 334.9729 262.5268  1.00268633   338
CZ-3B R/B               
1 52256U 22038B   22122.79583421  .00046854  52516-6  30291-2 0  9992
2 52256  28.5223  14.0269 7208225 189.6554 139.6432  2.40406860   424
DAQI 1                  
1 52257U 22039A   22123.16381132  .00000505  00000+0  12045-3 0  9996
2 52257  98.1348  64.6716 0001061 185.6186 174.5001 14.57670395  2534
CZ-4C R/B               
1 52258U 22039B   22122.92344936  .00003767  00000+0  32481-3 0  9990
2 52258  98.1636  65.3982 0139546   6.4242 353.8711 14.90705919  2551
SZ-13 MODULE            
1 52260U 21092C   22122.51857783  .00024983  00000+0  24586-3 0  9995
2 52260  41.4797 136.0849 0008423 164.3323 195.7779 15.65359812  2191
STARLINK-3810           
1 52261U 22041A   22122.91668981 -.00000123  00000+0  35404-5 0  9999
2 52261  53.2150 319.2509 0001371  56.2882 145.5441 15.73187300  2423
STARLINK-3761           
1 52262U 22041B   22122.91668981  .00055396  00000+0  39627-3 0  9990
2 52262  53.2150 319.2523 0001628  67.1620 133.3767 15.73214043  2427
STARLINK-3786           
1 52263U 22041C   22123.16667824 -.00090404  00000+0 -64496-3 0  9997
2 52263  53.2147 318.0137 0001442  63.1388 114.7124 15.73260415  3024
STARLINK-3795           
1 52264U 22041D   22122.91668981  .00064513  00000+0  46089-3 0  9993
2 52264  53.2149 319.2484 0001293  72.0653 130.3331 15.73182886  2425
STARLINK-3740           
1 52265U 22041E   22122.91668981  .00022726  00000+0  16606-3 0  9996
2 52265  53.2150 319.2481 0001135  46.5884 156.4345 15.73177339  2423
STARLINK-3739           
1 52266U 22041F   22122.91668981  .00070386  00000+0  50173-3 0  9999
2 52266  53.2151 319.2461 0001315  51.7062 151.8491 15.73199853  2425
STARLINK-3748           
1 52267U 22041G   22123.16667824  .00015897  00000+0  11740-3 0  9996
2 52267  53.2147 318.0073 0000929  50.6451 130.1966 15.73213626  3037
STARLINK-3746           
1 52268U 22041H   22123.16667824 -.00095824  00000+0 -68429-3 0  9993
2 52268  53.2144 318.0028 0001166  52.8542 129.7710 15.73262921  3037
STARLINK-3791           
1 52269U 22041J   22123.16667824  .00015401  00000+0  11384-3 0  9993
2 52269  53.2146 318.0061 0000964  50.4167 131.0071 15.73222157  3032
STARLINK-3804           
1 52270U 22041K   22122.91668981  .00009994  00000+0  75548-4 0  9995
2 52270  53.2151 319.2382 0001136  49.8892 157.2691 15.73196792  2423
STARLINK-3788           
1 52271U 22041L   22122.91668981 -.00012775  00000+0 -86770-4 0  9998
2 52271  53.2151 319.2429 0001288  56.6776 148.7009 15.73193192  2420
STARLINK-3781           
1 52272U 22041M   22123.16667824  .00006022  00000+0  47232-4 0  9998
2 52272  53.2147 317.9977 0001017  47.7368 137.2636 15.73230599  3037
STARLINK-3782           
1 52273U 22041N   22123.16667824  .00006974  00000+0  53982-4 0  9994
2 52273  53.2146 318.0018 0001066  52.0621 131.1293 15.73236699  3039
STARLINK-3790           
1 52274U 22041P   22123.16667824 -.00089102  00000+0 -63523-3 0  9992
2 52274  53.2145 317.9936 0001256  54.4658 132.2855 15.73271261  3033
STARLINK-3784           
1 52275U 22041Q   22122.91668981 -.00004684  00000+0 -28967-4 0  9996
2 52275  53.2151 319.2374 0001182  50.1156 157.6517 15.73206474  2428
STARLINK-3778           
1 52276U 22041R   22123.16667824  .00008799  00000+0  66932-4 0  9993
2 52276  53.2147 317.9911 0001054  44.6929 143.2468 15.73238044  3032
STARLINK-3787           
1 52277U 22041S   22122.91668981 -.00029478  00000+0 -20619-3 0  9991
2 52277  53.2151 319.2349 0001269  52.4634 156.5211 15.73218273  2423
STARLINK-3780           
1 52278U 22041T   22123.16667824  .00014302  00000+0  10596-3 0  9996
2 52278  53.2146 317.9897 0001133  37.4566 151.1004 15.73240612  3039
STARLINK-3686           
1 52279U 22041U   22123.16667824 -.00089009  00000+0 -63620-3 0  9991
2 52279  53.2145 317.9949 0001275  47.2469 138.9667 15.73210973  3030
STARLINK-3764           
1 52280U 22041V   22122.91668981 -.00070034  00000+0 -49741-3 0  9996
2 52280  53.2153 319.2233 0001408  53.3688 160.3959 15.73261522  2422
STARLINK-3779           
1 52281U 22041W   22123.16667824  .00016582  00000+0  12223-3 0  9991
2 52281  53.2145 317.9929 0001162  50.7398 136.5991 15.73218633  3031
STARLINK-3783           
1 52282U 22041X   22123.16667824  .00017065  00000+0  12569-3 0  9992
2 52282  53.2145 317.9835 0001022  44.3334 147.2109 15.73211832  3036
STARLINK-3789           
1 52283U 22041Y   22123.16667824 -.00082702  00000+0 -58905-3 0  9999
2 52283  53.2147 317.9887 0000987  49.0538 140.0692 15.73263634  3038
STARLINK-3561           
1 52284U 22041Z   22123.16667824  .00020735  00000+0  15162-3 0  9994
2 52284  53.2143 317.9802 0001084  44.7121 148.0158 15.73226358  3038
STARLINK-3775           
1 52285U 22041AA  22122.91668981  .00065861  00000+0  47063-3 0  9996
2 52285  53.2152 319.2255 0001533  56.6672 156.5136 15.73168888  2423
STARLINK-3802           
1 52286U 22041AB  22123.16667824 -.00114429  00000+0 -81970-3 0  9992
2 52286  53.2146 317.9780 0001288  61.1487 132.8151 15.73265749  3033
STARLINK-3822           
1 52287U 22041AC  22123.16667824  .00018115  00000+0  13307-3 0  9995
2 52287  53.2148 317.9852 0000973  35.1534 155.7765 15.73223995  3032
STARLINK-3776           
1 52288U 22041AD  22122.91668981  .00039304  00000+0  28338-3 0  9996
2 52288  53.2152 319.2148 0001222  55.8430 162.1100 15.73181048  3007
STARLINK-3751           
1 52289U 22041AE  22122.91668981 -.00011533  00000+0 -77757-4 0  9993
2 52289  53.2153 319.2204 0001370  47.0314 168.4345 15.73231101  2421
STARLINK-3772           
1 52290U 22041AF  22123.16667824 -.00101241  00000+0 -72373-3 0  9992
2 52290  53.2143 317.9728 0001499  47.6520 148.6729 15.73260526  3021
STARLINK-3773           
1 52291U 22041AG  22123.16667824 -.00082273  00000+0 -58628-3 0  9993
2 52291  53.2147 317.9795 0001286  58.9067 134.4357 15.73249470  3031
STARLINK-3753           
1 52292U 22041AH  22123.16667824  .00016602  00000+0  12245-3 0  9990
2 52292  53.2146 317.9704 0001090  36.8571 160.6483 15.73204457  3036
STARLINK-3771           
1 52293U 22041AJ  22122.91668981 -.00032169  00000+0 -22523-3 0  9996
2 52293  53.2154 319.2142 0001329  51.9176 166.5796 15.73244718  2429
STARLINK-3777           
1 52294U 22041AK  22123.16667824  .00012885  00000+0  95890-4 0  9999
2 52294  53.2146 317.9695 0001036  46.6486 151.4161 15.73246164  3033
STARLINK-3765           
1 52295U 22041AL  22123.16667824 -.00085593  00000+0 -61035-3 0  9991
2 52295  53.2146 317.9745 0001460  49.7551 146.0195 15.73249043  3034
STARLINK-3766           
1 52296U 22041AM  22122.91668981 -.00039347  00000+0 -27648-3 0  9997
2 52296  53.2152 319.2041 0001407  53.0378 170.1848 15.73263289  2425
STARLINK-3758           
1 52297U 22041AN  22122.91668981  .00082481  00000+0  58719-3 0  9996
2 52297  53.2152 319.2105 0001631  57.6317 162.6040 15.73165988  2426
STARLINK-3760           
1 52298U 22041AP  22122.91668981  .00011561  00000+0  86592-4 0  9999
2 52298  53.2153 319.2023 0001252  45.8831 177.9642 15.73222673  2428
STARLINK-3759           
1 52299U 22041AQ  22123.16667824  .00017115  00000+0  12622-3 0  9996
2 52299  53.2148 317.9670 0001043  36.7024 162.6347 15.73179970  3039
STARLINK-3769           
1 52300U 22041AR  22123.16667824 -.00095288  00000+0 -67964-3 0  9997
2 52300  53.2148 317.9618 0001460  60.7734 140.8702 15.73287613  3039
STARLINK-3768           
1 52301U 22041AS  22123.16667824  .00016428  00000+0  12134-3 0  9994
2 52301  53.2147 317.9681 0001045  35.5944 163.1286 15.73180303  3023
STARLINK-3564           
1 52302U 22041AT  22123.16667824 -.00094751  00000+0 -67622-3 0  9994
2 52302  53.2146 317.9580 0001459  56.1510 147.3090 15.73271311  3025
STARLINK-3742           
1 52303U 22041AU  22122.91668981  .00057886  00000+0  41443-3 0  9991
2 52303  53.2151 319.2014 0001619  50.4477 174.0376 15.73176414  2421
STARLINK-3744           
1 52304U 22041AV  22123.16667824  .00019576  00000+0  14348-3 0  9993
2 52304  53.2146 317.9566 0001296  51.0768 152.9226 15.73215209  3048
STARLINK-3724           
1 52305U 22041AW  22123.16667824  .00020234  00000+0  14809-3 0  9999
2 52305  53.2148 317.9609 0001395  58.3666 143.8676 15.73223284  3046
STARLINK-3747           
1 52306U 22041AX  22123.16667824 -.00090938  00000+0 -64825-3 0  9993
2 52306  53.2144 317.9556 0001440  57.8482 146.7424 15.73281430  3045
STARLINK-3755           
1 52307U 22041AY  22123.16667824  .00018813  00000+0  13793-3 0  9992
2 52307  53.2148 317.9598 0001532  60.0658 142.7442 15.73239763  3036
STARLINK-3745           
1 52308U 22041AZ  22122.91668981  .00032859  00000+0  23832-3 0  9991
2 52308  53.2152 319.1903 0001196  54.4095 174.9086 15.73131292  3000
STARLINK-3756           
1 52309U 22041BA  22122.91668981 -.00025771  00000+0 -17983-3 0  9999
2 52309  53.2153 319.1929 0001481  59.0828 169.5074 15.73190451  2426
STARLINK-3688           
1 52310U 22041BB  22122.91668981  .00048279  00000+0  34685-3 0  9995
2 52310  53.2152 319.1879 0001184  46.6998 183.7790 15.73171890  2420
